CCSDS_OMM_VERS,COMMENT,CREATION_DATE,ORIGINATOR,OBJECT_NAME,OBJECT_ID,CENTER_NAME,REF_FRAME,TIME_SYSTEM,MEAN_ELEMENT_THEORY,EPOCH,MEAN_MOTION,ECCENTRICITY,INCLINATION,RA_OF_ASC_NODE,ARG_OF_PERICENTER,MEAN_ANOMALY,EPHEMERIS_TYPE,CLASSIFICATION_TYPE,NORAD_CAT_ID,ELEMENT_SET_NO,REV_AT_EPOCH,BSTAR,MEAN_MOTION_DOT,MEAN_MOTION_DDOT,SEMIMAJOR_AXIS,PERIOD,APOAPSIS,PERIAPSIS,OBJECT_TYPE,RCS_SIZE,COUNTRY_CODE,LAUNCH_DATE,SITE,DECAY_DATE,FILE,GP_ID,TLE_LINE0,TLE_LINE1,TLE_LINE2
"2.0","GENERATED VIA SPACE-TRACK.ORG API","2020-04-19T01:32:21","18 SPCS","COSMOS 1818","1987-011A","EARTH","TEME","UTC","SGP4","2020-04-18T19:44:33.414144","14.31454726","0.00126120","65.0112","70.4319","267.5249","92.4392","0","U","17369","999","78672","0.00000575530000","-0.00000085","0.0000000000000","7165.009","100.596","795.910","777.837","PAYLOAD","LARGE","CIS","1987-02-01","TTMTR","","2736159","152411721","0 COSMOS 1818","1 17369U 87011A   20109.82260896 -.00000085 +00000-0 +57553-5 0  9990","2 17369 065.0112 070.4319 0012612 267.5249 092.4392 14.31454726786720"
"2.0","GENERATED VIA SPACE-TRACK.ORG API","2020-04-19T01:32:21","18 SPCS","IRIDIUM 136","2017-061H","EARTH","TEME","UTC","SGP4","2020-04-18T17:31:50.323584","14.34219111","0.00018530","86.3981","245.6203","103.5488","256.5914","0","U","42962","999","13227","0.00001922400000","0.00000074","0.0000000000000","7155.799","100.403","778.990","776.338","PAYLOAD","LARGE","US","2017-10-09","AFWTR","","2736159","152425277","0 IRIDIUM 136","1 42962U 17061H   20109.73044356 +.00000074 +00000-0 +19224-4 0  9995","2 42962 086.3981 245.6203 0001853 103.5488 256.5914 14.34219111132272"
"2.0","GENERATED VIA SPACE-TRACK.ORG API","2020-04-18T14:56:09","18 SPCS","IRIDIUM 136","2017-061H","EARTH","TEME","UTC","SGP4","2020-04-18T10:49:58.347264","14.34219084","0.00018490","86.3980","245.7368","103.3865","256.7537","0","U","42962","999","13223","0.00001919700000","0.00000074","0.0000000000000","7155.799","100.403","778.987","776.341","PAYLOAD","LARGE","US","2017-10-09","AFWTR","","2735944","152382274","0 IRIDIUM 136","1 42962U 17061H   20109.45136976  .00000074  00000-0  19197-4 0  9993","2 42962  86.3980 245.7368 0001849 103.3865 256.7537 14.34219084132234"
"2.0","GENERATED VIA SPACE-TRACK.ORG API","2020-04-18T16:59:46","18 SPCS","COSMOS 1818","1987-011A","EARTH","TEME","UTC","SGP4","2020-04-18T06:19:43.475232","14.31454701","0.00126130","65.0112","71.9970","267.4536","92.5105","0","U","17369","999","78664","0.00000407990000","-0.00000089","0.0000000000000","7165.009","100.596","795.911","777.837","PAYLOAD","LARGE","CIS","1987-02-01","TTMTR","","2735994","152387938","0 COSMOS 1818","1 17369U 87011A   20109.26369763 -.00000089 +00000-0 +40799-5 0  9999","2 17369 065.0112 071.9970 0012613 267.4536 092.5105 14.31454701786645"
"2.0","GENERATED VIA SPACE-TRACK.ORG API","2020-04-18T06:46:09","18 SPCS","COSMOS 1818","1987-011A","EARTH","TEME","UTC","SGP4","2020-04-18T04:39:07.231680","14.31454703","0.00126140","65.0111","72.1926","267.4382","92.5259","0","U","17369","999","78691","0.00000390610000","-0.00000090","0.0000000000000","7165.009","100.596","795.912","777.836","PAYLOAD","LARGE","CIS","1987-02-01","TTMTR","","2735689","152376178","0 COSMOS 1818","1 17369U 87011A   20109.19383370 -.00000090  00000-0  39061-5 0  9993","2 17369  65.0111  72.1926 0012614 267.4382  92.5259 14.31454703786910"
"2.0","GENERATED VIA SPACE-TRACK.ORG API","2020-04-18T01:14:18","18 SPCS","COSMOS 1818","1987-011A","EARTH","TEME","UTC","SGP4","2020-04-17T15:14:17.291040","14.31454712","0.00126160","65.0110","73.7576","267.3930","92.5710","0","U","17369","999","78655","0.00000337630000","-0.00000091","0.0000000000000","7165.009","100.596","795.913","777.835","PAYLOAD","LARGE","CIS","1987-02-01","TTMTR","","2735624","152359212","0 COSMOS 1818","1 17369U 87011A   20108.63492235 -.00000091 +00000-0 +33763-5 0  9996","2 17369 065.0110 073.7576 0012616 267.3930 092.5710 14.31454712786559"
"2.0","GENERATED VIA SPACE-TRACK.ORG API","2020-04-17T19:44:48","18 SPCS","IRIDIUM 136","2017-061H","EARTH","TEME","UTC","SGP4","2020-04-17T14:44:22.416576","14.34218978","0.00018260","86.3979","246.0867","102.5183","257.6217","0","U","42962","999","13211","0.00002080200000","0.00000078","0.0000000000000","7155.800","100.403","778.971","776.358","PAYLOAD","LARGE","US","2017-10-09","AFWTR","","2735499","152350173","0 IRIDIUM 136","1 42962U 17061H   20108.61414834 +.00000078 +00000-0 +20802-4 0  9991","2 42962 086.3979 246.0867 0001826 102.5183 257.6217 14.34218978132112"
"2.0","GENERATED VIA SPACE-TRACK.ORG API","2020-04-17T19:44:48","18 SPCS","COSMOS 1818","1987-011A","EARTH","TEME","UTC","SGP4","2020-04-17T08:31:52.322016","14.31454703","0.00126190","65.0109","74.5401","267.3393","92.6247","0","U","17369","999","78651","0.00000313400000","-0.00000092","0.0000000000000","7165.009","100.596","795.915","777.832","PAYLOAD","LARGE","CIS","1987-02-01","TTMTR","","2735499","152336617","0 COSMOS 1818","1 17369U 87011A   20108.35546669 -.00000092 +00000-0 +31340-5 0  9996","2 17369 065.0109 074.5401 0012619 267.3393 092.6247 14.31454703786511"
"2.0","GENERATED VIA SPACE-TRACK.ORG API","2020-04-17T06:46:09","18 SPCS","IRIDIUM 136","2017-061H","EARTH","TEME","UTC","SGP4","2020-04-17T03:01:06.458880","14.34218887","0.00018180","86.3978","246.2907","102.3293","257.8106","0","U","42962","999","13204","0.00002055800000","0.00000077","0.0000000000000","7155.800","100.403","778.966","776.364","PAYLOAD","LARGE","US","2017-10-09","AFWTR","","2735260","152326579","0 IRIDIUM 136","1 42962U 17061H   20108.12576920  .00000077  00000-0  20558-4 0  9999","2 42962  86.3978 246.2907 0001818 102.3293 257.8106 14.34218887132049"
"2.0","GENERATED VIA SPACE-TRACK.ORG API","2020-04-17T02:29:48","18 SPCS","COSMOS 1818","1987-011A","EARTH","TEME","UTC","SGP4","2020-04-16T22:28:14.864160","14.31454714","0.00126270","65.0108","75.7139","267.2563","92.7077","0","U","17369","999","78645","0.00000197450000","-0.00000095","0.0000000000000","7165.009","100.596","795.921","777.827","PAYLOAD","LARGE","CIS","1987-02-01","TTMTR","","2735193","152309542","0 COSMOS 1818","1 17369U 87011A   20107.93628315 -.00000095 +00000-0 +19745-5 0  9996","2 17369 065.0108 075.7139 0012627 267.2563 092.7077 14.31454714786455"
"2.0","GENERATED VIA SPACE-TRACK.ORG API","2020-04-17T02:29:48","18 SPCS","IRIDIUM 136","2017-061H","EARTH","TEME","UTC","SGP4","2020-04-16T18:38:46.483296","14.34218851","0.00018080","86.3978","246.4365","101.9953","258.1445","0","U","42962","999","13199","0.00002065400000","0.00000078","0.0000000000000","7155.800","100.403","778.959","776.371","PAYLOAD","LARGE","US","2017-10-09","AFWTR","","2735193","152323098","0 IRIDIUM 136","1 42962U 17061H   20107.77692689 +.00000078 +00000-0 +20654-4 0  9998","2 42962 086.3978 246.4365 0001808 101.9953 258.1445 14.34218851131990"
"2.0","GENERATED VIA SPACE-TRACK.ORG API","2020-04-16T20:46:09","18 SPCS","COSMOS 1818","1987-011A","EARTH","TEME","UTC","SGP4","2020-04-16T15:45:49.898592","14.31454688","0.00126250","65.0108","76.4965","267.2412","92.7227","0","U","17369","999","78669","0.00000242470000","-0.00000094","0.0000000000000","7165.009","100.596","795.920","777.828","PAYLOAD","LARGE","CIS","1987-02-01","TTMTR","","2734857","152297630","0 COSMOS 1818","1 17369U 87011A   20107.65682753 -.00000094  00000-0  24247-5 0  9993","2 17369  65.0108  76.4965 0012625 267.2412  92.7227 14.31454688786694"
"2.0","GENERATED VIA SPACE-TRACK.ORG API","2020-04-16T20:09:45","18 SPCS","IRIDIUM 136","2017-061H","EARTH","TEME","UTC","SGP4","2020-04-16T06:55:30.518688","14.34218800","0.00018050","86.3977","246.6405","101.6991","258.4408","0","U","42962","999","13192","0.00002201400000","0.00000081","0.0000000000000","7155.800","100.403","778.957","776.374","PAYLOAD","LARGE","US","2017-10-09","AFWTR","","2734761","152293062","0 IRIDIUM 136","1 42962U 17061H   20107.28854767 +.00000081 +00000-0 +22014-4 0  9997","2 42962 086.3977 246.6405 0001805 101.6991 258.4408 14.34218800131921"
"2.0","GENERATED VIA SPACE-TRACK.ORG API","2020-04-16T20:09:45","18 SPCS","COSMOS 1818","1987-011A","EARTH","TEME","UTC","SGP4","2020-04-16T05:42:12.447648","14.31454676","0.00126270","65.0107","77.6703","267.1643","92.7996","0","U","17369","999","78635","0.00000356300000","-0.00000091","0.0000000000000","7165.009","100.596","795.921","777.827","PAYLOAD","LARGE","CIS","1987-02-01","TTMTR","","2734761","152279506","0 COSMOS 1818","1 17369U 87011A   20107.23764407 -.00000091 +00000-0 +35630-5 0  9999","2 17369 065.0107 077.6703 0012627 267.1643 092.7996 14.31454676786356"
"2.0","GENERATED VIA SPACE-TRACK.ORG API","2020-04-16T01:22:16","18 SPCS","IRIDIUM 136","2017-061H","EARTH","TEME","UTC","SGP4","2020-04-15T19:12:14.550624","14.34218728","0.00017950","86.3976","246.8446","101.3634","258.7763","0","U","42962","999","13185","0.00002134900000","0.00000080","0.0000000000000","7155.800","100.403","778.950","776.381","PAYLOAD","LARGE","US","2017-10-09","AFWTR","","2734652","152271185","0 IRIDIUM 136","1 42962U 17061H   20106.80016841 +.00000080 +00000-0 +21349-4 0  9996","2 42962 086.3976 246.8446 0001795 101.3634 258.7763 14.34218728131854"
"2.0","GENERATED VIA SPACE-TRACK.ORG API","2020-04-16T01:22:16","18 SPCS","COSMOS 1818","1987-011A","EARTH","TEME","UTC","SGP4","2020-04-15T14:36:46.272096","14.31454665","0.00126270","65.0105","79.4310","267.1073","92.8566","0","U","17369","999","78626","0.00000536390000","-0.00000086","0.0000000000000","7165.009","100.596","795.921","777.827","PAYLOAD","LARGE","CIS","1987-02-01","TTMTR","","2734652","152257629","0 COSMOS 1818","1 17369U 87011A   20106.60886889 -.00000086 +00000-0 +53639-5 0  9991","2 17369 065.0105 079.4310 0012627 267.1073 092.8566 14.31454665786267"
